OBJECT_NAME,OBJECT_ID,EPOCH,MEAN_MOTION,ECCENTRICITY,INCLINATION,RA_OF_ASC_NODE,ARG_OF_PERICENTER,MEAN_ANOMALY,EPHEMERIS_TYPE,CLASSIFICATION_TYPE,NORAD_CAT_ID,ELEMENT_SET_NO,REV_AT_EPOCH,BSTAR,MEAN_MOTION_DOT,MEAN_MOTION_DDOT
ONEWEB-0534,2023-029B,2026-06-19T01:08:51.690336,13.20771838,.00018594,87.9188,274.0986,100.9113,259.2229,0,U,55797,999,16139,.14426174E-4,.19E-6,0
ONEWEB-0556,2023-029C,2026-06-19T04:56:43.692000,13.20773931,.00015131,87.9185,274.0665,76.6208,283.5094,0,U,55798,999,16141,.84908126E-4,.48E-6,0
ONEWEB-0562,2023-029D,2026-06-19T06:26:25.971360,13.20771185,.00022149,87.9187,274.0349,77.4136,282.7245,0,U,55799,999,16142,.57449078E-4,.36E-6,0
ONEWEB-0563,2023-029E,2026-06-19T06:19:10.069536,13.20772131,.00017669,87.9184,274.0663,103.9092,256.2238,0,U,55800,999,16141,-.14936687E-4,.7E-7,0
ONEWEB-0564,2023-029F,2026-06-19T06:09:28.635552,13.20771091,.00021228,87.9187,274.0410,90.1083,270.0294,0,U,55801,999,16142,.14706331E-3,.73E-6,0
ONEWEB-0638,2023-029G,2026-06-19T07:06:16.490016,13.14504361,.00017157,87.8959,289.3313,83.8515,276.2810,0,U,55802,999,15967,-.22499317E-3,-.71E-6,0
ONEWEB-0639,2023-029H,2026-06-19T01:53:43.178208,13.19725663,.00013912,87.9170,304.5989,129.8389,230.2866,0,U,55803,999,15915,.10679794E-3,.56E-6,0
ONEWEB-0640,2023-029J,2026-06-19T07:19:57.726336,13.14503353,.0001318,87.8955,289.3202,86.9724,273.1557,0,U,55804,999,15969,.42831335E-3,.172E-5,0
ONEWEB-0641,2023-029K,2026-06-19T07:14:24.878976,13.19725555,.00018074,87.9180,304.5436,104.8853,255.2480,0,U,55805,999,15919,.18200281E-3,.86E-6,0
ONEWEB-0642,2023-029L,2026-06-19T01:40:04.410336,13.19725173,.0001647,87.9172,304.6016,125.8587,234.2699,0,U,55806,999,15915,.95109656E-4,.51E-6,0
ONEWEB-0643,2023-029M,2026-06-19T01:07:45.113952,13.14503190,.0001995,87.8958,289.3590,120.8490,239.2836,0,U,55807,999,15963,-.57358513E-3,-.2E-5,0
ONEWEB-0644,2023-029N,2026-06-19T01:33:14.552928,13.19724509,.00017714,87.9170,304.6040,110.6866,249.4456,0,U,55808,999,15915,.14198107E-3,.7E-6,0
ONEWEB-0645,2023-029P,2026-06-19T02:05:05.053920,13.19724524,.00014352,87.9167,304.5968,103.1606,256.9687,0,U,55809,999,15915,.2935216E-3,.13E-5,0
ONEWEB-0646,2023-029Q,2026-06-19T02:30:06.996096,13.19725514,.00018194,87.9171,304.5933,108.4289,251.7042,0,U,55810,999,15914,.26754371E-3,.12E-5,0
ONEWEB-0648,2023-029R,2026-06-19T02:11:40.565472,13.14500212,.00011463,87.8969,289.3239,120.1443,239.9800,0,U,55811,999,15964,.10059138E-2,.386E-5,0
ONEWEB-0649,2023-029S,2026-06-19T03:06:29.644992,13.19724979,.00016167,87.9172,304.5860,103.1986,256.9327,0,U,55812,999,15918,.23088484E-4,.22E-6,0
ONEWEB-0650,2023-029T,2026-06-19T02:59:38.985792,13.19741308,.00016196,87.9164,304.5904,124.2166,235.9120,0,U,55813,999,15915,-.79358734E-2,-.3164E-4,0
ONEWEB-0652,2023-029U,2026-06-19T07:13:05.219904,13.14502310,.00020763,87.8964,289.2893,98.4926,261.6439,0,U,55814,999,15964,-.72707013E-3,-.257E-5,0
ONEWEB-0653,2023-029V,2026-06-19T06:50:15.703872,13.14503605,.00018915,87.8966,289.2902,98.3322,261.8022,0,U,55815,999,15967,-.39495216E-3,-.134E-5,0
ONEWEB-0654,2023-029W,2026-06-19T06:43:24.585888,13.14504110,.0002114,87.8966,289.2875,92.0254,268.1118,0,U,55816,999,15969,-.45101348E-3,-.154E-5,0
ONEWEB-0656,2023-029X,2026-06-19T05:59:45.936672,13.20773436,.00022795,87.9203,274.0187,91.4921,268.6474,0,U,55817,999,16142,.87890713E-4,.49E-6,0
ONEWEB-0657,2023-029Y,2026-06-19T02:52:51.659904,13.19725104,.00025814,87.9172,304.5891,101.3318,258.8105,0,U,55818,999,15916,.15226493E-3,.74E-6,0
ONEWEB-0658,2023-029Z,2026-06-19T04:35:12.736896,13.19724422,.00017585,87.9181,304.5507,112.3380,247.7939,0,U,55819,999,15918,.69868287E-4,.41E-6,0
ONEWEB-0660,2023-029AA,2026-06-19T06:11:26.902464,13.14503477,.00015568,87.8976,289.2852,98.8806,261.2500,0,U,55820,999,15967,.33619815E-3,.137E-5,0
ONEWEB-0661,2023-029AB,2026-06-19T07:01:41.947968,13.14503028,.00016415,87.8958,289.3230,96.1154,264.0163,0,U,55821,999,15966,-.25758007E-3,-.83E-6,0
ONEWEB-0662,2023-029AC,2026-06-19T06:02:19.580928,13.14503124,.0001597,87.8955,289.3373,101.2196,258.9114,0,U,55822,999,15970,.65246268E-3,.255E-5,0
ONEWEB-0663,2023-029AD,2026-06-19T04:59:00.753504,13.20856175,.00012786,87.9201,274.0986,120.1637,239.9623,0,U,55823,999,16141,-.4365272E-2,-.1764E-4,0
ONEWEB-0664,2023-029AE,2026-06-19T05:40:22.802592,13.20770931,.00017528,87.9185,274.0742,87.7237,272.4097,0,U,55824,999,16141,.25022179E-3,.115E-5,0
ONEWEB-0665,2023-029AF,2026-06-19T06:57:07.818912,13.14503460,.00015954,87.8959,289.3042,103.7524,256.3783,0,U,55825,999,15968,-.48470943E-3,-.167E-5,0
ONEWEB-0666,2023-029AG,2026-06-19T05:30:40.878720,13.20771615,.00027858,87.9186,274.0648,107.7673,252.3764,0,U,55826,999,16142,.18117853E-3,.87E-6,0
