ONEWEB-0534             
1 55797U 23029B   26170.04782049  .00000019  00000+0  14426-4 0  9999
2 55797  87.9188 274.0986 0001859 100.9113 259.2229 13.20771838161391
ONEWEB-0556             
1 55798U 23029C   26170.20606125  .00000048  00000+0  84908-4 0  9992
2 55798  87.9185 274.0665 0001513  76.6208 283.5094 13.20773931161413
ONEWEB-0562             
1 55799U 23029D   26170.26835615  .00000036  00000+0  57449-4 0  9994
2 55799  87.9187 274.0349 0002214  77.4136 282.7245 13.20771185161422
ONEWEB-0563             
1 55800U 23029E   26170.26331099  .00000007  00000+0 -14937-4 0  9998
2 55800  87.9184 274.0663 0001766 103.9092 256.2238 13.20772131161417
ONEWEB-0564             
1 55801U 23029F   26170.25658143  .00000073  00000+0  14706-3 0  9995
2 55801  87.9187 274.0410 0002122  90.1083 270.0294 13.20771091161426
ONEWEB-0638             
1 55802U 23029G   26170.29602419 -.00000071  00000+0 -22499-3 0  9993
2 55802  87.8959 289.3313 0001715  83.8515 276.2810 13.14504361159673
ONEWEB-0639             
1 55803U 23029H   26170.07897197  .00000056  00000+0  10680-3 0  9999
2 55803  87.9170 304.5989 0001391 129.8389 230.2866 13.19725663159158
ONEWEB-0640             
1 55804U 23029J   26170.30552924  .00000172  00000+0  42831-3 0  9994
2 55804  87.8955 289.3202 0001318  86.9724 273.1557 13.14503353159699
ONEWEB-0641             
1 55805U 23029K   26170.30167684  .00000086  00000+0  18200-3 0  9997
2 55805  87.9180 304.5436 0001807 104.8853 255.2480 13.19725555159192
ONEWEB-0642             
1 55806U 23029L   26170.06949549  .00000051  00000+0  95110-4 0  9997
2 55806  87.9172 304.6016 0001647 125.8587 234.2699 13.19725173159159
ONEWEB-0643             
1 55807U 23029M   26170.04704993 -.00000200  00000+0 -57359-3 0  9998
2 55807  87.8958 289.3590 0001995 120.8490 239.2836 13.14503190159630
ONEWEB-0644             
1 55808U 23029N   26170.06475177  .00000070  00000+0  14198-3 0  9997
2 55808  87.9170 304.6040 0001771 110.6866 249.4456 13.19724509159157
ONEWEB-0645             
1 55809U 23029P   26170.08686405  .00000130  00000+0  29352-3 0  9993
2 55809  87.9167 304.5968 0001435 103.1606 256.9687 13.19724524159154
ONEWEB-0646             
1 55810U 23029Q   26170.10424764  .00000120  00000+0  26754-3 0  9998
2 55810  87.9171 304.5933 0001819 108.4289 251.7042 13.19725514159141
ONEWEB-0648             
1 55811U 23029R   26170.09144173  .00000386  00000+0  10059-2 0  9994
2 55811  87.8969 289.3239 0001146 120.1443 239.9800 13.14500212159647
ONEWEB-0649             
1 55812U 23029S   26170.12950978  .00000022  00000+0  23088-4 0  9992
2 55812  87.9172 304.5860 0001616 103.1986 256.9327 13.19724979159185
ONEWEB-0650             
1 55813U 23029T   26170.12475678 -.00003164  00000+0 -79359-2 0  9994
2 55813  87.9164 304.5904 0001619 124.2166 235.9120 13.19741308159153
ONEWEB-0652             
1 55814U 23029U   26170.30075486 -.00000257  00000+0 -72707-3 0  9999
2 55814  87.8964 289.2893 0002076  98.4926 261.6439 13.14502310159647
ONEWEB-0653             
1 55815U 23029V   26170.28490398 -.00000134  00000+0 -39495-3 0  9991
2 55815  87.8966 289.2902 0001891  98.3322 261.8022 13.14503605159675
ONEWEB-0654             
1 55816U 23029W   26170.28014567 -.00000154  00000+0 -45101-3 0  9995
2 55816  87.8966 289.2875 0002114  92.0254 268.1118 13.14504110159699
ONEWEB-0656             
1 55817U 23029X   26170.24983723  .00000049  00000+0  87891-4 0  9995
2 55817  87.9203 274.0187 0002279  91.4921 268.6474 13.20773436161429
ONEWEB-0657             
1 55818U 23029Y   26170.12004236  .00000074  00000+0  15226-3 0  9996
2 55818  87.9172 304.5891 0002581 101.3318 258.8105 13.19725104159160
ONEWEB-0658             
1 55819U 23029Z   26170.19111964  .00000041  00000+0  69868-4 0  9997
2 55819  87.9181 304.5507 0001758 112.3380 247.7939 13.19724422159187
ONEWEB-0660             
1 55820U 23029AA  26170.25795026  .00000137  00000+0  33620-3 0  9995
2 55820  87.8976 289.2852 0001556  98.8806 261.2500 13.14503477159678
ONEWEB-0661             
1 55821U 23029AB  26170.29284662 -.00000083  00000+0 -25758-3 0  9994
2 55821  87.8958 289.3230 0001641  96.1154 264.0163 13.14503028159669
ONEWEB-0662             
1 55822U 23029AC  26170.25161552  .00000255  00000+0  65246-3 0  9998
2 55822  87.8955 289.3373 0001597 101.2196 258.9114 13.14503124159709
ONEWEB-0663             
1 55823U 23029AD  26170.20764761 -.00001764  00000+0 -43653-2 0  9990
2 55823  87.9201 274.0986 0001278 120.1637 239.9623 13.20856175161411
ONEWEB-0664             
1 55824U 23029AE  26170.23637503  .00000115  00000+0  25022-3 0  9995
2 55824  87.9185 274.0742 0001752  87.7237 272.4097 13.20770931161416
ONEWEB-0665             
1 55825U 23029AF  26170.28967383 -.00000167  00000+0 -48471-3 0  9995
2 55825  87.8959 289.3042 0001595 103.7524 256.3783 13.14503460159683
ONEWEB-0666             
1 55826U 23029AG  26170.22963980  .00000087  00000+0  18118-3 0  9993
2 55826  87.9186 274.0648 0002785 107.7673 252.3764 13.20771615161427
